[{"OBJECT_NAME":"STARLINK-1567","OBJECT_ID":"2020-055M","EPOCH":"2026-03-10T00:00:02.999808","MEAN_MOTION":15.18253947,"ECCENTRICITY":0.00014476,"INCLINATION":53.0874,"RA_OF_ASC_NODE":124.961,"ARG_OF_PERICENTER":74.8938,"MEAN_ANOMALY":22.5266,"EPHEMERIS_TYPE":0,"CLASSIFICATION_TYPE":"U","NORAD_CAT_ID":46038,"ELEMENT_SET_NO":999,"REV_AT_EPOCH":579,"BSTAR":0.068265395,"MEAN_MOTION_DOT":0.01557947,"MEAN_MOTION_DDOT":0},{"OBJECT_NAME":"OBJECT B","OBJECT_ID":"2021-015B","EPOCH":"2026-03-09T15:14:34.210752","MEAN_MOTION":15.41258714,"ECCENTRICITY":0.0021689,"INCLINATION":97.1346,"RA_OF_ASC_NODE":105.7301,"ARG_OF_PERICENTER":273.1755,"MEAN_ANOMALY":86.7011,"EPHEMERIS_TYPE":0,"CLASSIFICATION_TYPE":"U","NORAD_CAT_ID":47700,"ELEMENT_SET_NO":999,"REV_AT_EPOCH":27907,"BSTAR":0.00033462,"MEAN_MOTION_DOT":0.00013956,"MEAN_MOTION_DDOT":0}]
